#dV2023  1 11 10  0  0.00000000    1682       CTS   FIT  GFZ
## 2244 295200.00000000    30.00000000 59955 0.4166666666667
+    1   L65  0  0  0  0  0  0  0  0  0  0  0  0  0  0  0  0
+          0  0  0  0  0  0  0  0  0  0  0  0  0  0  0  0  0
+          0  0  0  0  0  0  0  0  0  0  0  0  0  0  0  0  0
+          0  0  0  0  0  0  0  0  0  0  0  0  0  0  0  0  0
+          0  0  0  0  0  0  0  0  0  0  0  0  0  0  0  0  0
++         0  0  0  0  0  0  0  0  0  0  0  0  0  0  0  0  0
++         0  0  0  0  0  0  0  0  0  0  0  0  0  0  0  0  0
++         0  0  0  0  0  0  0  0  0  0  0  0  0  0  0  0  0
++         0  0  0  0  0  0  0  0  0  0  0  0  0  0  0  0  0
++         0  0  0  0  0  0  0  0  0  0  0  0  0  0  0  0  0
%c L  cc GPS ccc cccc cccc cccc cccc ccccc ccccc ccccc ccccc
%c cc cc ccc ccc cccc cccc cccc cccc ccccc ccccc ccccc ccccc
%f  0.0000000  0.000000000  0.00000000000  0.000000000000000
%f  0.0000000  0.000000000  0.00000000000  0.000000000000000
%i    0    0    0    0      0      0      0      0         0
%i    0    0    0    0      0      0      0      0         0
/* CCCCCCCCCCCCCCCCCCCCCCCCCCCCCCCCCCCCCCCCCCCCCCCCCCCCCCCCCCCCCCCCCCCCCCCCCCCCC
/* C                             GFZ RSO-ORBIT                                 C
/* C DOI: https://doi.org/10.5880/GFZ_ORBIT/RSO/L65_G_v02                      C
/* C                                                                           C
/* C DORIS        RMS: not applicable                                          C
/* C GNSS-E Code  RMS: not applicable                                          C
/* C GNSS-E Phase RMS: not applicable                                          C
/* C GNSS-G Code  RMS:  48.775 [cm]   Obs.acc.:     13951 Obs.eli.:      1060  C
/* C GNSS-G Phase RMS:   4.146 [mm]   Obs.acc.:     13951 Obs.eli.:      1060  C
/* C SLR          RMS:   2.146 [cm]   Obs.acc.:        29 Obs.eli.:         0  C
/* C                                                                           C
/* CCCCCCCCCCCCCCCCCCCCCCCCCCCCCCCCCCCCCCCCCCCCCCCCCCCCCCCCCCCCCCCCCCCCCCCCCCCCC
*  2023  1 11 14 15  0.00000000
PL65  -1458.485087  -1334.457589   6579.726945  28718.200502
VL65 -51500.266003 -51494.425010 -21823.821224 999999.999999
*  2023  1 11 14 15 30.00000000
PL65  -1612.494861  -1487.844179   6510.636396  28718.667535
VL65 -51162.992748 -50754.200784 -24232.344236 999999.999999
*  2023  1 11 14 16  0.00000000
PL65  -1765.403563  -1638.928724   6434.359397  28719.134590
VL65 -50766.241906 -49959.908079 -26614.350676 999999.999999
*  2023  1 11 14 16 30.00000000
PL65  -1917.033013  -1787.550668   6350.979419  28719.601621
VL65 -50310.193709 -49112.657990 -28967.230611 999999.999999
*  2023  1 11 14 17  0.00000000
PL65  -2067.205674  -1933.552880   6260.587724  28720.068773
VL65 -49795.096503 -48213.618555 -31288.401159 999999.999999
*  2023  1 11 14 17 30.00000000
PL65  -2215.744859  -2076.781812   6163.283276  28720.535853
VL65 -49221.268266 -47264.013028 -33575.309237 999999.999999
*  2023  1 11 14 18  0.00000000
PL65  -2362.474939  -2217.087668   6059.172652  28721.002725
VL65 -48589.097657 -46265.118806 -35825.434742 999999.999999
*  2023  1 11 14 18 30.00000000
PL65  -2507.221559  -2354.324565   5948.369935  28721.469585
VL65 -47899.043946 -45218.266955 -38036.294333 999999.999999
*  2023  1 11 14 19  0.00000000
PL65  -2649.811848  -2488.350694   5830.996596  28721.936415
VL65 -47151.637466 -44124.840610 -40205.445590 999999.999999
*  2023  1 11 14 19 30.00000000
PL65  -2790.074630  -2619.028465   5707.181368  28722.403418
VL65 -46347.479169 -42986.271319 -42330.491606 999999.999999
*  2023  1 11 14 20  0.00000000
PL65  -2927.840638  -2746.224654   5577.060103  28722.870431
VL65 -45487.238123 -41804.036141 -44409.082912 999999.999999
*  2023  1 11 14 20 30.00000000
PL65  -3062.942710  -2869.810536   5440.775628  28723.337410
VL65 -44571.650670 -40579.657268 -46438.918159 999999.999999
*  2023  1 11 14 21  0.00000000
PL65  -3195.215997  -2989.662019   5298.477602  28723.804347
VL65 -43601.520867 -39314.701019 -48417.746662 999999.999999
*  2023  1 11 14 21 30.00000000
PL65  -3324.498162  -3105.659772   5150.322354  28724.271287
VL65 -42577.720404 -38010.775634 -50343.371359 999999.999999
*  2023  1 11 14 22  0.00000000
PL65  -3450.629585  -3217.689350   4996.472721  28724.738203
VL65 -41501.188102 -36669.528939 -52213.651515 999999.999999
*  2023  1 11 14 22 30.00000000
PL65  -3573.453562  -3325.641308   4837.097873  28725.205032
VL65 -40372.928927 -35292.646014 -54026.505129 999999.999999
*  2023  1 11 14 23  0.00000000
PL65  -3692.816500  -3429.411309   4672.373140  28725.671994
VL65 -39194.012999 -33881.847309 -55779.910627 999999.999999
*  2023  1 11 14 23 30.00000000
PL65  -3808.568116  -3528.900230   4502.479819  28726.138915
VL65 -37965.575345 -32438.887427 -57471.908851 999999.999999
*  2023  1 11 14 24  0.00000000
PL65  -3920.561628  -3624.014259   4327.604990  28726.605844
VL65 -36688.815473 -30965.553518 -59100.606540 999999.999999
*  2023  1 11 14 24 30.00000000
PL65  -4028.653947  -3714.664993   4147.941307  28727.072740
VL65 -35364.995372 -29463.662257 -60664.179571 999999.999999
*  2023  1 11 14 25  0.00000000
PL65  -4132.705860  -3800.769518   3963.686793  28727.539411
VL65 -33995.437410 -27935.056942 -62160.873958 999999.999999
*  2023  1 11 14 25 30.00000000
PL65  -4232.582213  -3882.250488   3775.044627  28728.006055
VL65 -32581.523712 -26381.606065 -63589.006511 999999.999999
*  2023  1 11 14 26  0.00000000
PL65  -4328.152087  -3959.036200   3582.222929  28728.472932
VL65 -31124.696030 -24805.202068 -64946.967079 999999.999999
*  2023  1 11 14 26 30.00000000
PL65  -4419.288974  -4031.060661   3385.434534  28728.939885
VL65 -29626.454924 -23207.759344 -66233.221637 999999.999999
*  2023  1 11 14 27  0.00000000
PL65  -4505.870958  -4098.263651   3184.896763  28729.407116
VL65 -28088.358037 -21591.211691 -67446.315210 999999.999999
*  2023  1 11 14 27 30.00000000
PL65  -4587.780878  -4160.590776   2980.831180  28729.874125
VL65 -26512.017978 -19957.509638 -68584.874071 999999.999999
*  2023  1 11 14 28  0.00000000
PL65  -4664.906487  -4217.993518   2773.463346  28730.341174
VL65 -24899.100471 -18308.617959 -69647.607480 999999.999999
*  2023  1 11 14 28 30.00000000
PL65  -4737.140618  -4270.429270   2563.022569  28730.808263
VL65 -23251.322606 -16646.513048 -70633.309670 999999.999999
*  2023  1 11 14 29  0.00000000
PL65  -4804.381327  -4317.861368   2349.741642  28731.275240
VL65 -21570.450641 -14973.179947 -71540.861552 999999.999999
*  2023  1 11 14 29 30.00000000
PL65  -4866.532040  -4360.259113   2133.856584  28731.742259
VL65 -19858.297731 -13290.609658 -72369.231753 999999.999999
*  2023  1 11 14 30  0.00000000
PL65  -4923.501689  -4397.597784   1915.606379  28732.208537
VL65 -18116.721852 -11600.796699 -73117.477503 999999.999999
*  2023  1 11 14 30 30.00000000
PL65  -4975.204848  -4429.858646   1695.232700  28732.674766
VL65 -16347.624066  -9905.737009 -73784.745299 999999.999999
*  2023  1 11 14 31  0.00000000
PL65  -5021.561853  -4457.028955   1472.979651  28733.140985
VL65 -14552.947134  -8207.426281 -74370.272500 999999.999999
*  2023  1 11 14 31 30.00000000
PL65  -5062.498932  -4479.101946   1249.093478  28733.607962
VL65 -12734.673019  -6507.857277 -74873.389731 999999.999999
*  2023  1 11 14 32  0.00000000
PL65  -5097.948311  -4496.076827   1023.822300  28734.075041
VL65 -10894.819686  -4809.016455 -75293.521808 999999.999999
*  2023  1 11 14 32 30.00000000
PL65  -5127.848321  -4507.958751    797.415817  28734.541963
VL65  -9035.438642  -3112.881226 -75630.187817 999999.999999
*  2023  1 11 14 33  0.00000000
PL65  -5152.143497  -4514.758786    570.125029  28735.009092
VL65  -7158.612693  -1421.417714 -75883.001356 999999.999999
*  2023  1 11 14 33 30.00000000
PL65  -5170.784664  -4516.493882    342.201956  28735.476078
VL65  -5266.453885    263.421093 -76051.671075 999999.999999
*  2023  1 11 14 34  0.00000000
PL65  -5183.729025  -4513.186823    113.899345  28735.943290
VL65  -3361.101160   1939.697573 -76136.001959 999999.999999
*  2023  1 11 14 34 30.00000000
PL65  -5190.940239  -4504.866179   -114.529616  28736.410150
VL65  -1444.717271   3605.492373 -76135.896127 999999.999999
*  2023  1 11 14 35  0.00000000
PL65  -5192.388481  -4491.566249   -342.831591  28736.877101
VL65    480.514193   5258.907061 -76051.352902 999999.999999
*  2023  1 11 14 35 30.00000000
PL65  -5188.050507  -4473.326993   -570.753389  28737.343991
VL65   2412.391749   6898.066710 -75882.468850 999999.999999
*  2023  1 11 14 36  0.00000000
PL65  -5177.909700  -4450.193954   -798.042254  28737.810935
VL65   4348.698959   8521.122476 -75629.437272 999999.999999
*  2023  1 11 14 36 30.00000000
PL65  -5161.956112  -4422.218183  -1024.446152  28738.277894
VL65   6287.206870  10126.253674 -75292.547619 999999.999999
*  2023  1 11 14 37  0.00000000
PL65  -5140.186497  -4389.456148  -1249.714064  28738.744668
VL65   8225.676519  11711.669941 -74872.185712 999999.999999
*  2023  1 11 14 37 30.00000000
PL65  -5112.604337  -4351.969637  -1473.596273  28739.211655
VL65  10161.862529  13275.614339 -74368.833596 999999.999999
*  2023  1 11 14 38  0.00000000
PL65  -5079.219854  -4309.825656  -1695.844649  28739.678472
VL65  12093.516952  14816.365856 -73783.067543 999999.999999
*  2023  1 11 14 38 30.00000000
PL65  -5040.050015  -4263.096320  -1916.212929  28740.145495
VL65  14018.391648  16332.240213 -73115.555972 999999.999999
*  2023  1 11 14 39  0.00000000
PL65  -4995.118530  -4211.858740  -2134.456996  28740.612387
VL65  15934.239998  17821.590880 -72367.059302 999999.999999
*  2023  1 11 14 39 30.00000000
PL65  -4944.455844  -4156.194906  -2350.335150  28741.079307
VL65  17838.819651  19282.811709 -71538.430069 999999.999999
*  2023  1 11 14 40  0.00000000
PL65  -4888.099116  -4096.191564  -2563.608384  28741.546402
VL65  19729.895759  20714.339676 -70630.611501 999999.999999
EOF
